[{"OBJECT_NAME":"WNISAT-1","OBJECT_ID":"2013-066H","EPOCH":"2026-03-06T22:54:03.940128","MEAN_MOTION":14.57859358,"ECCENTRICITY":0.0163377,"INCLINATION":97.7037,"RA_OF_ASC_NODE":222.4624,"ARG_OF_PERICENTER":193.4928,"MEAN_ANOMALY":166.188,"EPHEMERIS_TYPE":0,"CLASSIFICATION_TYPE":"U","NORAD_CAT_ID":39423,"ELEMENT_SET_NO":999,"REV_AT_EPOCH":65183,"BSTAR":0.00040578,"MEAN_MOTION_DOT":2.185e-5,"MEAN_MOTION_DDOT":0},{"OBJECT_NAME":"TRITON-1","OBJECT_ID":"2013-066M","EPOCH":"2026-03-07T04:07:06.212352","MEAN_MOTION":14.81180288,"ECCENTRICITY":0.0090022,"INCLINATION":97.8297,"RA_OF_ASC_NODE":338.3205,"ARG_OF_PERICENTER":205.9569,"MEAN_ANOMALY":153.7115,"EPHEMERIS_TYPE":0,"CLASSIFICATION_TYPE":"U","NORAD_CAT_ID":39427,"ELEMENT_SET_NO":999,"REV_AT_EPOCH":65898,"BSTAR":0.0004095,"MEAN_MOTION_DOT":3.359e-5,"MEAN_MOTION_DDOT":0},{"OBJECT_NAME":"GOMX-1","OBJECT_ID":"2013-066Q","EPOCH":"2026-03-07T04:02:43.108800","MEAN_MOTION":14.69084967,"ECCENTRICITY":0.0130405,"INCLINATION":97.6565,"RA_OF_ASC_NODE":273.031,"ARG_OF_PERICENTER":45.5255,"MEAN_ANOMALY":315.6526,"EPHEMERIS_TYPE":0,"CLASSIFICATION_TYPE":"U","NORAD_CAT_ID":39430,"ELEMENT_SET_NO":999,"REV_AT_EPOCH":65493,"BSTAR":0.00028051,"MEAN_MOTION_DOT":1.826e-5,"MEAN_MOTION_DDOT":0},{"OBJECT_NAME":"CUBEBUG-2 (LO-74)","OBJECT_ID":"2013-066AA","EPOCH":"2026-03-06T13:08:28.841856","MEAN_MOTION":14.92909829,"ECCENTRICITY":0.00590879,"INCLINATION":97.882,"RA_OF_ASC_NODE":14.2158,"ARG_OF_PERICENTER":9.5494,"MEAN_ANOMALY":350.6833,"EPHEMERIS_TYPE":0,"CLASSIFICATION_TYPE":"U","NORAD_CAT_ID":39440,"ELEMENT_SET_NO":999,"REV_AT_EPOCH":66167,"BSTAR":0.00071771382,"MEAN_MOTION_DOT":7.643e-5,"MEAN_MOTION_DDOT":0},{"OBJECT_NAME":"NEE-02 KRYSAOR","OBJECT_ID":"2013-066AB","EPOCH":"2026-03-06T08:21:29.422944","MEAN_MOTION":14.86134829,"ECCENTRICITY":0.00679768,"INCLINATION":97.882,"RA_OF_ASC_NODE":5.3792,"ARG_OF_PERICENTER":47.8016,"MEAN_ANOMALY":312.8942,"EPHEMERIS_TYPE":0,"CLASSIFICATION_TYPE":"U","NORAD_CAT_ID":39441,"ELEMENT_SET_NO":999,"REV_AT_EPOCH":66092,"BSTAR":0.0004315782,"MEAN_MOTION_DOT":3.888e-5,"MEAN_MOTION_DDOT":0},{"OBJECT_NAME":"FUNCUBE-1 (AO-73)","OBJECT_ID":"2013-066AE","EPOCH":"2026-03-06T20:29:39.374016","MEAN_MOTION":15.07846155,"ECCENTRICITY":0.0036957,"INCLINATION":97.8191,"RA_OF_ASC_NODE":35.3439,"ARG_OF_PERICENTER":188.9589,"MEAN_ANOMALY":171.0983,"EPHEMERIS_TYPE":0,"CLASSIFICATION_TYPE":"U","NORAD_CAT_ID":39444,"ELEMENT_SET_NO":999,"REV_AT_EPOCH":66423,"BSTAR":0.00077451,"MEAN_MOTION_DOT":0.00011997,"MEAN_MOTION_DDOT":0},{"OBJECT_NAME":"UWE-3","OBJECT_ID":"2013-066AG","EPOCH":"2026-03-07T02:54:53.074368","MEAN_MOTION":14.96140822,"ECCENTRICITY":0.0048664,"INCLINATION":97.8593,"RA_OF_ASC_NODE":21.6435,"ARG_OF_PERICENTER":301.1194,"MEAN_ANOMALY":58.5257,"EPHEMERIS_TYPE":0,"CLASSIFICATION_TYPE":"U","NORAD_CAT_ID":39446,"ELEMENT_SET_NO":999,"REV_AT_EPOCH":66231,"BSTAR":0.00054125,"MEAN_MOTION_DOT":6.179e-5,"MEAN_MOTION_DDOT":0},{"OBJECT_NAME":"BRITE-CA1 (TORONTO)","OBJECT_ID":"2014-033L","EPOCH":"2026-03-06T21:51:36.640800","MEAN_MOTION":14.72452777,"ECCENTRICITY":0.0077789,"INCLINATION":97.9562,"RA_OF_ASC_NODE":196.8362,"ARG_OF_PERICENTER":243.9212,"MEAN_ANOMALY":115.3975,"EPHEMERIS_TYPE":0,"CLASSIFICATION_TYPE":"U","NORAD_CAT_ID":40020,"ELEMENT_SET_NO":999,"REV_AT_EPOCH":62716,"BSTAR":0.00026032,"MEAN_MOTION_DOT":1.677e-5,"MEAN_MOTION_DDOT":0},{"OBJECT_NAME":"DUCHIFAT-1","OBJECT_ID":"2014-033M","EPOCH":"2026-03-07T01:15:22.240800","MEAN_MOTION":15.49410411,"ECCENTRICITY":0.0006412,"INCLINATION":98.0633,"RA_OF_ASC_NODE":112.169,"ARG_OF_PERICENTER":92.665,"MEAN_ANOMALY":267.5333,"EPHEMERIS_TYPE":0,"CLASSIFICATION_TYPE":"U","NORAD_CAT_ID":40021,"ELEMENT_SET_NO":999,"REV_AT_EPOCH":63986,"BSTAR":0.0011017,"MEAN_MOTION_DOT":0.00060805,"MEAN_MOTION_DDOT":0},{"OBJECT_NAME":"NANOSATC-BR1","OBJECT_ID":"2014-033Q","EPOCH":"2026-03-07T00:51:43.329888","MEAN_MOTION":15.27990956,"ECCENTRICITY":0.0004368,"INCLINATION":98.0842,"RA_OF_ASC_NODE":89.585,"ARG_OF_PERICENTER":155.6453,"MEAN_ANOMALY":204.4991,"EPHEMERIS_TYPE":0,"CLASSIFICATION_TYPE":"U","NORAD_CAT_ID":40024,"ELEMENT_SET_NO":999,"REV_AT_EPOCH":63836,"BSTAR":0.00073577,"MEAN_MOTION_DOT":0.00020048,"MEAN_MOTION_DDOT":0},{"OBJECT_NAME":"QB50P1","OBJECT_ID":"2014-033R","EPOCH":"2026-03-07T00:06:45.835488","MEAN_MOTION":15.1644625,"ECCENTRICITY":0.0007996,"INCLINATION":98.101,"RA_OF_ASC_NODE":70.1061,"ARG_OF_PERICENTER":204.0446,"MEAN_ANOMALY":156.0413,"EPHEMERIS_TYPE":0,"CLASSIFICATION_TYPE":"U","NORAD_CAT_ID":40025,"ELEMENT_SET_NO":999,"REV_AT_EPOCH":63753,"BSTAR":0.00059414,"MEAN_MOTION_DOT":0.000115,"MEAN_MOTION_DDOT":0},{"OBJECT_NAME":"QB50P2","OBJECT_ID":"2014-033Y","EPOCH":"2026-03-06T22:52:15.140064","MEAN_MOTION":15.1360425,"ECCENTRICITY":0.0008432,"INCLINATION":98.0735,"RA_OF_ASC_NODE":56.6033,"ARG_OF_PERICENTER":150.0335,"MEAN_ANOMALY":210.1379,"EPHEMERIS_TYPE":0,"CLASSIFICATION_TYPE":"U","NORAD_CAT_ID":40032,"ELEMENT_SET_NO":999,"REV_AT_EPOCH":63719,"BSTAR":0.00055514,"MEAN_MOTION_DOT":9.908e-5,"MEAN_MOTION_DDOT":0},{"OBJECT_NAME":"PERSEUS-M2","OBJECT_ID":"2014-033AD","EPOCH":"2026-03-07T03:37:07.405824","MEAN_MOTION":14.95148611,"ECCENTRICITY":0.0010164,"INCLINATION":97.9878,"RA_OF_ASC_NODE":14.7077,"ARG_OF_PERICENTER":281.3323,"MEAN_ANOMALY":78.6754,"EPHEMERIS_TYPE":0,"CLASSIFICATION_TYPE":"U","NORAD_CAT_ID":40037,"ELEMENT_SET_NO":999,"REV_AT_EPOCH":63553,"BSTAR":0.00028609,"MEAN_MOTION_DOT":3.082e-5,"MEAN_MOTION_DDOT":0},{"OBJECT_NAME":"PERSEUS-M1","OBJECT_ID":"2014-033AF","EPOCH":"2026-03-06T09:28:45.465024","MEAN_MOTION":14.95234871,"ECCENTRICITY":0.00099071,"INCLINATION":97.9559,"RA_OF_ASC_NODE":7.9297,"ARG_OF_PERICENTER":281.0478,"MEAN_ANOMALY":78.9628,"EPHEMERIS_TYPE":0,"CLASSIFICATION_TYPE":"U","NORAD_CAT_ID":40039,"ELEMENT_SET_NO":999,"REV_AT_EPOCH":63527,"BSTAR":0.00032944794,"MEAN_MOTION_DOT":3.567e-5,"MEAN_MOTION_DDOT":0},{"OBJECT_NAME":"POLYITAN-1","OBJECT_ID":"2014-033AJ","EPOCH":"2026-03-06T23:48:26.927712","MEAN_MOTION":15.29402657,"ECCENTRICITY":0.0009144,"INCLINATION":98.1049,"RA_OF_ASC_NODE":82.8355,"ARG_OF_PERICENTER":135.4602,"MEAN_ANOMALY":224.7372,"EPHEMERIS_TYPE":0,"CLASSIFICATION_TYPE":"U","NORAD_CAT_ID":40042,"ELEMENT_SET_NO":999,"REV_AT_EPOCH":63795,"BSTAR":0.00084897,"MEAN_MOTION_DOT":0.00024202,"MEAN_MOTION_DDOT":0},{"OBJECT_NAME":"TIGRISAT","OBJECT_ID":"2014-033AK","EPOCH":"2026-03-06T21:27:40.043808","MEAN_MOTION":14.8470895,"ECCENTRICITY":0.0050551,"INCLINATION":97.7669,"RA_OF_ASC_NODE":218.3641,"ARG_OF_PERICENTER":51.3673,"MEAN_ANOMALY":309.2051,"EPHEMERIS_TYPE":0,"CLASSIFICATION_TYPE":"U","NORAD_CAT_ID":40043,"ELEMENT_SET_NO":999,"REV_AT_EPOCH":63044,"BSTAR":0.00034861,"MEAN_MOTION_DOT":2.966e-5,"MEAN_MOTION_DDOT":0},{"OBJECT_NAME":"AEROCUBE 6A","OBJECT_ID":"2014-033AM","EPOCH":"2026-03-06T22:08:33.268992","MEAN_MOTION":14.9679144,"ECCENTRICITY":0.0039068,"INCLINATION":97.712,"RA_OF_ASC_NODE":234.1022,"ARG_OF_PERICENTER":358.8215,"MEAN_ANOMALY":1.2908,"EPHEMERIS_TYPE":0,"CLASSIFICATION_TYPE":"U","NORAD_CAT_ID":40045,"ELEMENT_SET_NO":999,"REV_AT_EPOCH":63131,"BSTAR":0.00065344,"MEAN_MOTION_DOT":7.539e-5,"MEAN_MOTION_DDOT":0}]
